IRIDIUM 150             
1 43257U 18030J   25354.54073528  .00000204  00000+0  65729-4 0  9994
2 43257  86.3966   5.1467 0002365  92.7751 267.3715 14.34216936404559
IRIDIUM 143             
1 43258U 18030K   25354.73100222  .00000218  00000+0  70720-4 0  9990
2 43258  86.3971   5.1528 0002442  92.0871 268.0604 14.34222929404516
IRIDIUM 161             
1 43478U 18047C   25354.50341982  .00000081  00000+0  17990-4 0  9995
2 43478  86.4508 163.1381 0001856  89.0948 271.0466 14.43280844399364
IRIDIUM 152             
1 43479U 18047D   25354.70372883  .00000058  00000+0  13821-4 0  9995
2 43479  86.3984 162.9151 0001847  93.2659 266.8748 14.34217916396902
IRIDIUM 147             
1 43480U 18047E   25354.43098288  .00000178  00000+0  56342-4 0  9999
2 43480  86.3993 163.0309 0002072  92.3643 267.7790 14.34218598396864
IRIDIUM 110             
1 43481U 18047F   25354.71641100  .00000044  00000+0  86781-5 0  9991
2 43481  86.3989 162.9990 0001507  85.4432 274.6936 14.34217425396895
IRIDIUM 162             
1 43482U 18047G   25354.56645432  .00000071  00000+0  15206-4 0  9990
2 43482  86.4509 163.0053 0001930 100.5687 259.5732 14.43279109399366
IRIDIUM 160             
1 43569U 18061A   25354.80178845  .00000218  00000+0  70691-4 0  9990
2 43569  86.3980 131.3842 0001867  89.4016 270.7394 14.34218516387808
